STARLINK-36927          
1 67941U 26037K   26076.83335647 -.01942141  00000+0 -12910-1 0  9992
2 67941  42.9993 148.5601 0001297 270.8318  41.1846 15.77765326  4500
STARLINK-36914          
1 67942U 26037L   26076.59086385  .00194446  00000+0  90317-3 0  9991
2 67942  42.9985 150.0700 0001700 263.4209  96.6469 15.82067964  4501
STARLINK-36851          
1 67943U 26037M   26076.83335647 -.01927583  00000+0 -12238-1 0  9990
2 67943  42.9992 148.5843 0001487 273.0505  29.3713 15.78743768  4501
STARLINK-36892          
1 67944U 26037N   26076.83335647 -.01936216  00000+0 -11853-1 0  9996
2 67944  42.9989 148.5586 0001472 269.0847  43.8905 15.79550532  4500
STARLINK-36908          
1 67945U 26037P   26076.58715468 -.00296930  00000+0 -14775-2 0  9990
2 67945  42.9985 150.0395 0001124 297.8019  62.2738 15.81711476  4505
STARLINK-36909          
1 67946U 26037Q   26076.46010074  .00149440  00000+0  69845-3 0  9999
2 67946  42.9984 150.8064 0001502 283.5201  76.5503 15.82064921  4483
STARLINK-36920          
1 67947U 26037R   26075.51239524 -.00072225  00000+0 -34658-3 0  9990
2 67947  42.9981 156.6035 0001765 192.0581 168.0249 15.81813874  4335
STARLINK-36873          
1 67948U 26037S   26076.83335647 -.01927130  00000+0 -14835-1 0  9998
2 67948  42.9993 148.5592 0001585 272.9790  39.2401 15.74454264  4501
STARLINK-36863          
1 67949U 26037T   26076.83335647 -.01938508  00000+0 -12161-1 0  9990
2 67949  42.9991 148.4967 0001390 274.5480  62.7989 15.79024979  4506
STARLINK-36887          
1 67950U 26037U   26076.83335647 -.01931718  00000+0 -21697-1 0  9992
2 67950  42.9998 148.7907 0001227 272.5870 307.0630 15.64933319  4501
STARLINK-36897          
1 67951U 26037V   26076.83335647 -.01948158  00000+0 -12812-1 0  9998
2 67951  42.9993 148.4834 0001693 266.9542  75.8258 15.78007362  4504
STARLINK-36381          
1 67952U 26037W   26075.57100050 -.00027192  00000+0 -12748-3 0  9992
2 67952  42.9982 156.1801 0001021 306.5215  53.5562 15.81938385  4341
