CCSDS_OMM_VERS = 2.0
CREATION_DATE  = 
ORIGINATOR     = 

OBJECT_NAME    = STARLINK-36927
OBJECT_ID      = 2026-037K
CENTER_NAME    = EARTH
REF_FRAME      = TEME
TIME_SYSTEM    = UTC
MEAN_ELEMENT_THEORY = SGP/SGP4

EPOCH          = 2026-03-17T20:00:01.999008
MEAN_MOTION    = 15.77765326
ECCENTRICITY   = .0001297
INCLINATION    = 42.9993
RA_OF_ASC_NODE = 148.5601
ARG_OF_PERICENTER = 270.8318
MEAN_ANOMALY   = 41.1846

EPHEMERIS_TYPE = 0
CLASSIFICATION_TYPE = U
NORAD_CAT_ID   = 67941
ELEMENT_SET_NO = 999
REV_AT_EPOCH   = 450
BSTAR          = -.1291E-1
MEAN_MOTION_DOT = -.1942141E-1
MEAN_MOTION_DDOT = 0

CCSDS_OMM_VERS = 2.0
CREATION_DATE  = 
ORIGINATOR     = 

OBJECT_NAME    = STARLINK-36914
OBJECT_ID      = 2026-037L
CENTER_NAME    = EARTH
REF_FRAME      = TEME
TIME_SYSTEM    = UTC
MEAN_ELEMENT_THEORY = SGP/SGP4

EPOCH          = 2026-03-17T14:10:50.636640
MEAN_MOTION    = 15.82067964
ECCENTRICITY   = .00017001
INCLINATION    = 42.9985
RA_OF_ASC_NODE = 150.0700
ARG_OF_PERICENTER = 263.4209
MEAN_ANOMALY   = 96.6469

EPHEMERIS_TYPE = 0
CLASSIFICATION_TYPE = U
NORAD_CAT_ID   = 67942
ELEMENT_SET_NO = 999
REV_AT_EPOCH   = 450
BSTAR          = .90317166E-3
MEAN_MOTION_DOT = .194446E-2
MEAN_MOTION_DDOT = 0

CCSDS_OMM_VERS = 2.0
CREATION_DATE  = 
ORIGINATOR     = 

OBJECT_NAME    = STARLINK-36851
OBJECT_ID      = 2026-037M
CENTER_NAME    = EARTH
REF_FRAME      = TEME
TIME_SYSTEM    = UTC
MEAN_ELEMENT_THEORY = SGP/SGP4

EPOCH          = 2026-03-17T20:00:01.999008
MEAN_MOTION    = 15.78743768
ECCENTRICITY   = .0001487
INCLINATION    = 42.9992
RA_OF_ASC_NODE = 148.5843
ARG_OF_PERICENTER = 273.0505
MEAN_ANOMALY   = 29.3713

EPHEMERIS_TYPE = 0
CLASSIFICATION_TYPE = U
NORAD_CAT_ID   = 67943
ELEMENT_SET_NO = 999
REV_AT_EPOCH   = 450
BSTAR          = -.12238E-1
MEAN_MOTION_DOT = -.1927583E-1
MEAN_MOTION_DDOT = 0

CCSDS_OMM_VERS = 2.0
CREATION_DATE  = 
ORIGINATOR     = 

OBJECT_NAME    = STARLINK-36892
OBJECT_ID      = 2026-037N
CENTER_NAME    = EARTH
REF_FRAME      = TEME
TIME_SYSTEM    = UTC
MEAN_ELEMENT_THEORY = SGP/SGP4

EPOCH          = 2026-03-17T20:00:01.999008
MEAN_MOTION    = 15.79550532
ECCENTRICITY   = .0001472
INCLINATION    = 42.9989
RA_OF_ASC_NODE = 148.5586
ARG_OF_PERICENTER = 269.0847
MEAN_ANOMALY   = 43.8905

EPHEMERIS_TYPE = 0
CLASSIFICATION_TYPE = U
NORAD_CAT_ID   = 67944
ELEMENT_SET_NO = 999
REV_AT_EPOCH   = 450
BSTAR          = -.11853E-1
MEAN_MOTION_DOT = -.1936216E-1
MEAN_MOTION_DDOT = 0

CCSDS_OMM_VERS = 2.0
CREATION_DATE  = 
ORIGINATOR     = 

OBJECT_NAME    = STARLINK-36908
OBJECT_ID      = 2026-037P
CENTER_NAME    = EARTH
REF_FRAME      = TEME
TIME_SYSTEM    = UTC
MEAN_ELEMENT_THEORY = SGP/SGP4

EPOCH          = 2026-03-17T14:05:30.164352
MEAN_MOTION    = 15.81711476
ECCENTRICITY   = .00011246
INCLINATION    = 42.9985
RA_OF_ASC_NODE = 150.0395
ARG_OF_PERICENTER = 297.8019
MEAN_ANOMALY   = 62.2738

EPHEMERIS_TYPE = 0
CLASSIFICATION_TYPE = U
NORAD_CAT_ID   = 67945
ELEMENT_SET_NO = 999
REV_AT_EPOCH   = 450
BSTAR          = -.14774606E-2
MEAN_MOTION_DOT = -.29693E-2
MEAN_MOTION_DDOT = 0

CCSDS_OMM_VERS = 2.0
CREATION_DATE  = 
ORIGINATOR     = 

OBJECT_NAME    = STARLINK-36909
OBJECT_ID      = 2026-037Q
CENTER_NAME    = EARTH
REF_FRAME      = TEME
TIME_SYSTEM    = UTC
MEAN_ELEMENT_THEORY = SGP/SGP4

EPOCH          = 2026-03-17T11:02:32.703936
MEAN_MOTION    = 15.82064921
ECCENTRICITY   = .00015026
INCLINATION    = 42.9984
RA_OF_ASC_NODE = 150.8064
ARG_OF_PERICENTER = 283.5201
MEAN_ANOMALY   = 76.5503

EPHEMERIS_TYPE = 0
CLASSIFICATION_TYPE = U
NORAD_CAT_ID   = 67946
ELEMENT_SET_NO = 999
REV_AT_EPOCH   = 448
BSTAR          = .69844594E-3
MEAN_MOTION_DOT = .14944E-2
MEAN_MOTION_DDOT = 0

CCSDS_OMM_VERS = 2.0
CREATION_DATE  = 
ORIGINATOR     = 

OBJECT_NAME    = STARLINK-36920
OBJECT_ID      = 2026-037R
CENTER_NAME    = EARTH
REF_FRAME      = TEME
TIME_SYSTEM    = UTC
MEAN_ELEMENT_THEORY = SGP/SGP4

EPOCH          = 2026-03-16T12:17:50.948736
MEAN_MOTION    = 15.81813874
ECCENTRICITY   = .00017659
INCLINATION    = 42.9981
RA_OF_ASC_NODE = 156.6035
ARG_OF_PERICENTER = 192.0581
MEAN_ANOMALY   = 168.0249

EPHEMERIS_TYPE = 0
CLASSIFICATION_TYPE = U
NORAD_CAT_ID   = 67947
ELEMENT_SET_NO = 999
REV_AT_EPOCH   = 433
BSTAR          = -.34658101E-3
MEAN_MOTION_DOT = -.72225E-3
MEAN_MOTION_DDOT = 0

CCSDS_OMM_VERS = 2.0
CREATION_DATE  = 
ORIGINATOR     = 

OBJECT_NAME    = STARLINK-36873
OBJECT_ID      = 2026-037S
CENTER_NAME    = EARTH
REF_FRAME      = TEME
TIME_SYSTEM    = UTC
MEAN_ELEMENT_THEORY = SGP/SGP4

EPOCH          = 2026-03-17T20:00:01.999008
MEAN_MOTION    = 15.74454264
ECCENTRICITY   = .0001585
INCLINATION    = 42.9993
RA_OF_ASC_NODE = 148.5592
ARG_OF_PERICENTER = 272.9790
MEAN_ANOMALY   = 39.2401

EPHEMERIS_TYPE = 0
CLASSIFICATION_TYPE = U
NORAD_CAT_ID   = 67948
ELEMENT_SET_NO = 999
REV_AT_EPOCH   = 450
BSTAR          = -.14835E-1
MEAN_MOTION_DOT = -.192713E-1
MEAN_MOTION_DDOT = 0

CCSDS_OMM_VERS = 2.0
CREATION_DATE  = 
ORIGINATOR     = 

OBJECT_NAME    = STARLINK-36863
OBJECT_ID      = 2026-037T
CENTER_NAME    = EARTH
REF_FRAME      = TEME
TIME_SYSTEM    = UTC
MEAN_ELEMENT_THEORY = SGP/SGP4

EPOCH          = 2026-03-17T20:00:01.999008
MEAN_MOTION    = 15.79024979
ECCENTRICITY   = .000139
INCLINATION    = 42.9991
RA_OF_ASC_NODE = 148.4967
ARG_OF_PERICENTER = 274.5480
MEAN_ANOMALY   = 62.7989

EPHEMERIS_TYPE = 0
CLASSIFICATION_TYPE = U
NORAD_CAT_ID   = 67949
ELEMENT_SET_NO = 999
REV_AT_EPOCH   = 450
BSTAR          = -.12161E-1
MEAN_MOTION_DOT = -.1938508E-1
MEAN_MOTION_DDOT = 0

CCSDS_OMM_VERS = 2.0
CREATION_DATE  = 
ORIGINATOR     = 

OBJECT_NAME    = STARLINK-36887
OBJECT_ID      = 2026-037U
CENTER_NAME    = EARTH
REF_FRAME      = TEME
TIME_SYSTEM    = UTC
MEAN_ELEMENT_THEORY = SGP/SGP4

EPOCH          = 2026-03-17T20:00:01.999008
MEAN_MOTION    = 15.64933319
ECCENTRICITY   = .0001227
INCLINATION    = 42.9998
RA_OF_ASC_NODE = 148.7907
ARG_OF_PERICENTER = 272.5870
MEAN_ANOMALY   = 307.0630

EPHEMERIS_TYPE = 0
CLASSIFICATION_TYPE = U
NORAD_CAT_ID   = 67950
ELEMENT_SET_NO = 999
REV_AT_EPOCH   = 450
BSTAR          = -.21697E-1
MEAN_MOTION_DOT = -.1931718E-1
MEAN_MOTION_DDOT = 0

CCSDS_OMM_VERS = 2.0
CREATION_DATE  = 
ORIGINATOR     = 

OBJECT_NAME    = STARLINK-36897
OBJECT_ID      = 2026-037V
CENTER_NAME    = EARTH
REF_FRAME      = TEME
TIME_SYSTEM    = UTC
MEAN_ELEMENT_THEORY = SGP/SGP4

EPOCH          = 2026-03-17T20:00:01.999008
MEAN_MOTION    = 15.78007362
ECCENTRICITY   = .0001693
INCLINATION    = 42.9993
RA_OF_ASC_NODE = 148.4834
ARG_OF_PERICENTER = 266.9542
MEAN_ANOMALY   = 75.8258

EPHEMERIS_TYPE = 0
CLASSIFICATION_TYPE = U
NORAD_CAT_ID   = 67951
ELEMENT_SET_NO = 999
REV_AT_EPOCH   = 450
BSTAR          = -.12812E-1
MEAN_MOTION_DOT = -.1948158E-1
MEAN_MOTION_DDOT = 0

CCSDS_OMM_VERS = 2.0
CREATION_DATE  = 
ORIGINATOR     = 

OBJECT_NAME    = STARLINK-36381
OBJECT_ID      = 2026-037W
CENTER_NAME    = EARTH
REF_FRAME      = TEME
TIME_SYSTEM    = UTC
MEAN_ELEMENT_THEORY = SGP/SGP4

EPOCH          = 2026-03-16T13:42:14.443200
MEAN_MOTION    = 15.81938385
ECCENTRICITY   = .00010214
INCLINATION    = 42.9982
RA_OF_ASC_NODE = 156.1801
ARG_OF_PERICENTER = 306.5215
MEAN_ANOMALY   = 53.5562

EPHEMERIS_TYPE = 0
CLASSIFICATION_TYPE = U
NORAD_CAT_ID   = 67952
ELEMENT_SET_NO = 999
REV_AT_EPOCH   = 434
BSTAR          = -.12748186E-3
MEAN_MOTION_DOT = -.27192E-3
MEAN_MOTION_DDOT = 0

